NORAD_CAT_ID,OBJECT_NAME,OBJECT_TYPE,EPOCH,MEAN_MOTION,ECCENTRICITY,INCLINATION,RA_OF_ASC_NODE,ARG_OF_PERICENTER,MEAN_ANOMALY,BSTAR,MEAN_MOTION_DOT,MEAN_MOTION_DDOT,TLE_LINE0,TLE_LINE1,TLE_LINE2,SEMIMAJOR_AXIS,PERIOD,APOGEE,PERIGEE,DECAYED
53847.0,STARLINK-4777,PAYLOAD,2024-01-25 16:21:21,15.08836663,0.0001517,53.2182,168.7122,99.9418,260.1745,1.4756e-05,-5.3e-07,0.0,0 STARLINK-4777,1 53847U 22114AF  24025.68150170 -.00000053  00000-0  14756-4 0  9994,2 53847  53.2182 168.7122 0001517  99.9418 260.1745 15.08836663 76128,6917.891,95.438,540.805,538.706,0.0
53847.0,STARLINK-4777,PAYLOAD,2024-01-26 14:36:45,15.08839954,0.0001355,53.2182,164.5495,101.7796,258.3348,4.4196e-05,4.16e-06,0.0,0 STARLINK-4777,1 53847U 22114AF  24026.60885951  .00000416  00000-0  44196-4 0  9992,2 53847  53.2182 164.5495 0001355 101.7796 258.3348 15.08839954 76265,6917.881,95.438,540.683,538.808,0.0
53847.0,STARLINK-4777,PAYLOAD,2024-01-26 19:22:55,15.08835422,0.0001517,53.2185,163.664,113.8589,246.2562,7.1809e-05,8.55e-06,0.0,0 STARLINK-4777,1 53847U 22114AF  24026.80758194  .00000855  00000-0  71809-4 0  9990,2 53847  53.2185 163.6640 0001517 113.8589 246.2562 15.08835422 75757,6917.894,95.438,540.809,538.71,0.0
53847.0,STARLINK-4777,PAYLOAD,2024-01-27 14:27:33,15.08838891,0.00014,53.218,160.0895,102.4878,257.6271,5.9007e-06,-1.94e-06,0.0,0 STARLINK-4777,1 53847U 22114AF  24027.60246594 -.00000194  00000-0  59007-5 0  9999,2 53847  53.2180 160.0895 0001400 102.4878 257.6271 15.08838891 76411,6917.884,95.438,540.717,538.78,0.0
53847.0,STARLINK-4777,PAYLOAD,2024-01-27 16:02:56,15.08835552,0.0001281,53.2178,159.7926,86.0346,274.0792,0.00010793,1.43e-05,0.0,0 STARLINK-4777,1 53847U 22114AF  24027.66870576  .00001430  00000-0  10793-3 0  9998,2 53847  53.2178 159.7926 0001281  86.0346 274.0792 15.08835552 76425,6917.894,95.438,540.645,538.873,0.0
53847.0,STARLINK-4777,PAYLOAD,2024-01-28 14:18:20,15.08833115,0.000139,53.218,155.6282,81.2106,278.9044,0.00010311,1.353e-05,0.0,0 STARLINK-4777,1 53847U 22114AF  24028.59606849  .00001353  00000-0  10311-3 0  9991,2 53847  53.2180 155.6282 0001390  81.2106 278.9044 15.08833115 76561,6917.901,95.438,540.728,538.805,0.0
53847.0,STARLINK-4777,PAYLOAD,2024-01-28 17:29:06,15.08837264,0.00014,53.2177,155.0333,67.5198,292.5942,0.00012433,1.691e-05,0.0,0 STARLINK-4777,1 53847U 22114AF  24028.72854630  .00001691  00000-0  12433-3 0  9991,2 53847  53.2177 155.0333 0001400  67.5198 292.5942 15.08837264 76049,6917.889,95.438,540.722,538.785,0.0
53847.0,STARLINK-4777,PAYLOAD,2024-01-29 17:19:52,15.08850436,0.0001673,53.2187,150.5672,85.7977,274.3207,0.00010622,1.403e-05,0.0,0 STARLINK-4777,1 53847U 22114AF  24029.72213792  .00001403  00000-0  10622-3 0  9999,2 53847  53.2187 150.5672 0001673  85.7977 274.3207 15.08850436 76199,6917.848,95.437,540.871,538.556,0.0
53847.0,STARLINK-4777,PAYLOAD,2024-01-30 12:24:31,15.08840591,0.0001873,53.2186,146.9935,87.7558,272.3648,-5.0593e-05,-1.093e-05,0.0,0 STARLINK-4777,1 53847U 22114AF  24030.51702835 -.00001093  00000-0 -50593-4 0  9998,2 53847  53.2186 146.9935 0001873  87.7558 272.3648 15.08840591 76310,6917.879,95.438,541.039,538.448,0.0
53847.0,STARLINK-4777,PAYLOAD,2024-01-30 13:59:54,15.08839041,0.0001373,53.2177,146.7065,85.6639,274.451,-4.3891e-05,-9.86e-06,0.0,0 STARLINK-4777,1 53847U 22114AF  24030.58326926 -.00000986  00000-0 -43891-4 0  9991,2 53847  53.2177 146.7065 0001373  85.6639 274.4510 15.08839041 76863,6917.883,95.438,540.698,538.798,0.0
53847.0,STARLINK-4777,PAYLOAD,2024-01-30 17:10:40,15.08841937,0.0001365,53.218,146.1081,104.4362,255.6782,-3.4692e-05,-8.4e-06,0.0,0 STARLINK-4777,1 53847U 22114AF  24030.71574556 -.00000840  00000-0 -34692-4 0  9998,2 53847  53.2180 146.1081 0001365 104.4362 255.6782 15.08841937 76884,6917.874,95.437,540.684,538.795,0.0
53847.0,STARLINK-4777,PAYLOAD,2024-01-31 12:15:17,15.088644,0.0001409,53.2185,142.5388,105.6027,254.5121,-0.00029533,-4.988e-05,0.0,0 STARLINK-4777,1 53847U 22114AF  24031.51062272 -.00004988  00000-0 -29533-3 0  9998,2 53847  53.2185 142.5388 0001409 105.6027 254.5121 15.08864400 76468,6917.806,95.436,540.646,538.696,0.0
53847.0,STARLINK-4777,PAYLOAD,2024-01-31 17:01:26,15.08877802,0.0001846,53.219,141.6451,113.7876,246.3309,-0.00045557,-7.539e-05,0.0,0 STARLINK-4777,1 53847U 22114AF  24031.70933695 -.00007539  00000-0 -45557-3 0  9994,2 53847  53.2190 141.6451 0001846 113.7876 246.3309 15.08877802 77033,6917.765,95.435,540.907,538.353,0.0
53847.0,STARLINK-4777,PAYLOAD,2024-02-01 12:06:05,15.08834932,0.0001449,53.2178,138.0772,94.9701,265.1456,3.3454e-05,2.44e-06,0.0,0 STARLINK-4777,1 53847U 22114AF  24032.50422920  .00000244  00000-0  33454-4 0  9995,2 53847  53.2178 138.0772 0001449  94.9701 265.1456 15.08834932 76613,6917.896,95.438,540.763,538.758,0.0
53847.0,STARLINK-4777,PAYLOAD,2024-02-02 11:56:51,15.08844282,0.0001747,53.2174,133.6188,114.783,245.3344,7.744e-05,9.45e-06,0.0,0 STARLINK-4777,1 53847U 22114AF  24033.49782229  .00000945  00000-0  77440-4 0  9996,2 53847  53.2174 133.6188 0001747 114.7830 245.3344 15.08844282 76767,6917.867,95.437,540.941,538.524,0.0
53847.0,STARLINK-4777,PAYLOAD,2024-02-03 11:47:39,15.08835476,0.0001408,53.2169,129.1617,100.1937,259.9214,-4.0349e-05,-9.3e-06,0.0,0 STARLINK-4777,1 53847U 22114AF  24034.49143466 -.00000930  00000-0 -40349-4 0  9995,2 53847  53.2169 129.1617 0001408 100.1937 259.9214 15.08835476 77458,6917.894,95.438,540.733,538.785,0.0
53847.0,STARLINK-4777,PAYLOAD,2024-02-04 11:38:26,15.08846527,0.0001558,53.2181,124.7002,108.3692,251.747,6.6109e-06,-1.83e-06,0.0,0 STARLINK-4777,1 53847U 22114AF  24035.48502690 -.00000183  00000-0  66109-5 0  9995,2 53847  53.2181 124.7002 0001558 108.3692 251.7470 15.08846527 77065,6917.86,95.437,540.803,538.648,0.0
53847.0,STARLINK-4777,PAYLOAD,2024-02-04 13:13:49,15.08847345,0.0001323,53.217,124.4026,71.861,288.2526,5.8971e-05,6.51e-06,0.0,0 STARLINK-4777,1 53847U 22114AF  24035.55126614  .00000651  00000-0  58971-4 0  9997,2 53847  53.2170 124.4026 0001323  71.8610 288.2526 15.08847345 77617,6917.858,95.437,540.638,538.808,0.0
53847.0,STARLINK-4777,PAYLOAD,2024-02-05 11:29:14,15.08831013,0.0002328,53.2181,120.2447,44.1328,315.9849,8.1819e-05,1.014e-05,0.0,0 STARLINK-4777,1 53847U 22114AF  24036.47863974  .00001014  00000-0  81819-4 0  9997,2 53847  53.2181 120.2447 0002328  44.1328 315.9849 15.08831013 77212,6917.908,95.438,541.383,538.162,0.0
53847.0,STARLINK-4777,PAYLOAD,2024-02-05 13:04:37,15.08835668,0.0001845,53.2179,119.9446,57.7535,302.3635,6.9626e-05,8.2e-06,0.0,0 STARLINK-4777,1 53847U 22114AF  24036.54487622  .00000820  00000-0  69626-4 0  9993,2 53847  53.2179 119.9446 0001845  57.7535 302.3635 15.08835668 77769,6917.894,95.438,541.035,538.482,0.0
53847.0,STARLINK-4777,PAYLOAD,2024-02-06 12:55:23,15.08844885,0.0002145,53.2192,115.4811,53.9219,306.1972,6.0692e-05,6.78e-06,0.0,0 STARLINK-4777,1 53847U 22114AF  24037.53847127  .00000678  00000-0  60692-4 0  9998,2 53847  53.2192 115.4811 0002145  53.9219 306.1972 15.08844885 77916,6917.865,95.437,541.214,538.247,0.0
53847.0,STARLINK-4777,PAYLOAD,2024-02-07 11:10:47,15.08840012,0.0001494,53.2171,111.3224,88.9362,271.1802,4.4074e-05,4.14e-06,0.0,0 STARLINK-4777,1 53847U 22114AF  24038.46583197  .00000414  00000-0  44074-4 0  9999,2 53847  53.2171 111.3224 0001494  88.9362 271.1802 15.08840012 78056,6917.88,95.438,540.779,538.712,0.0
53847.0,STARLINK-4777,PAYLOAD,2024-02-08 04:40:02,15.08843423,0.0001535,53.217,108.0517,87.3684,272.7484,-5.7726e-05,-1.207e-05,0.0,0 STARLINK-4777,1 53847U 22114AF  24039.19447457 -.00001207  00000-0 -57726-4 0  9999,2 53847  53.2170 108.0517 0001535  87.3684 272.7484 15.08843423 77623,6917.87,95.437,540.797,538.673,0.0
53847.0,STARLINK-4777,PAYLOAD,2024-02-08 11:01:35,15.0884467,0.0001513,53.2165,106.8616,86.8758,273.2408,-4.2702e-05,-9.68e-06,0.0,0 STARLINK-4777,1 53847U 22114AF  24039.45943289 -.00000968  00000-0 -42702-4 0  9993,2 53847  53.2165 106.8616 0001513  86.8758 273.2408 15.08844670 78207,6917.866,95.437,540.778,538.684,0.0
53847.0,STARLINK-4777,PAYLOAD,2024-02-09 04:30:48,15.08856176,0.0001501,53.2167,103.5865,90.8724,269.244,8.9659e-05,1.14e-05,0.0,0 STARLINK-4777,1 53847U 22114AF  24040.18805744  .00001140  00000-0  89659-4 0  9991,2 53847  53.2167 103.5865 0001501  90.8724 269.2440 15.08856176 77770,6917.831,95.437,540.734,538.658,0.0
53847.0,STARLINK-4777,PAYLOAD,2024-02-09 10:52:23,15.088196,0.0001493,53.217,102.4004,92.0922,268.0241,-0.00015551,-2.761e-05,0.0,0 STARLINK-4777,1 53847U 22114AF  24040.45304682 -.00002761  00000-0 -15551-3 0  9997,2 53847  53.2170 102.4004 0001493  92.0922 268.0241 15.08819600 77813,6917.943,95.439,540.841,538.775,0.0
53847.0,STARLINK-4777,PAYLOAD,2024-02-09 14:03:09,15.08824612,0.0001347,53.2178,101.803,87.6859,272.4287,-0.00016292,-2.879e-05,0.0,0 STARLINK-4777,1 53847U 22114AF  24040.58552456 -.00002879  00000-0 -16292-3 0  9998,2 53847  53.2178 101.8030 0001347  87.6859 272.4287 15.08824612 78370,6917.927,95.439,540.724,538.861,0.0
53847.0,STARLINK-4777,PAYLOAD,2024-02-10 04:21:37,15.08833325,9.62e-05,53.2178,99.1277,85.5824,274.5278,-6.4837e-05,-1.319e-05,0.0,0 STARLINK-4777,1 53847U 22114AF  24041.18168048 -.00001319  00000-0 -64837-4 0  9992,2 53847  53.2178  99.1277 0000962  85.5824 274.5278 15.08833325 77927,6917.901,95.438,540.431,539.1,0.0
53847.0,STARLINK-4777,PAYLOAD,2024-02-10 10:43:08,15.08846145,0.0001357,53.2172,97.9331,104.4959,255.6183,3.1702e-05,2.17e-06,0.0,0 STARLINK-4777,1 53847U 22114AF  24041.44663072  .00000217  00000-0  31702-4 0  9997,2 53847  53.2172  97.9331 0001357 104.4959 255.6183 15.08846145 77960,6917.862,95.437,540.665,538.788,0.0
53847.0,STARLINK-4777,PAYLOAD,2024-02-11 12:09:19,15.08831399,0.0001503,53.2181,93.1786,89.7046,270.4118,0.00022155,3.239e-05,0.0,0 STARLINK-4777,1 53847U 22114AF  24042.50647626  .00003239  00000-0  22155-3 0  9990,2 53847  53.2181  93.1786 0001503  89.7046 270.4118 15.08831399 78124,6917.907,95.438,540.811,538.732,0.0
